[{"OBJECT_NAME":"QIANFAN-24","OBJECT_ID":"2024-185F","EPOCH":"2026-03-09T23:10:13.381824","MEAN_MOTION":14.23940693,"ECCENTRICITY":0.00101265,"INCLINATION":88.9739,"RA_OF_ASC_NODE":66.9556,"ARG_OF_PERICENTER":26.7081,"MEAN_ANOMALY":333.4631,"EPHEMERIS_TYPE":0,"CLASSIFICATION_TYPE":"U","NORAD_CAT_ID":61557,"ELEMENT_SET_NO":999,"REV_AT_EPOCH":8243,"BSTAR":0.00040785949,"MEAN_MOTION_DOT":9.49e-6,"MEAN_MOTION_DDOT":0},{"OBJECT_NAME":"THORAD DELTA 1 DEB","OBJECT_ID":"1974-089CP","EPOCH":"2026-03-09T17:16:05.752992","MEAN_MOTION":14.01411105,"ECCENTRICITY":0.01182191,"INCLINATION":101.6798,"RA_OF_ASC_NODE":343.2219,"ARG_OF_PERICENTER":74.8598,"MEAN_ANOMALY":286.5599,"EPHEMERIS_TYPE":0,"CLASSIFICATION_TYPE":"U","NORAD_CAT_ID":8438,"ELEMENT_SET_NO":999,"REV_AT_EPOCH":51371,"BSTAR":0.0075485339,"MEAN_MOTION_DOT":0.00012063,"MEAN_MOTION_DDOT":0}]
